STARLINK-37499          
1 69250U 26117N   26164.87476434  .00092554  00000+0  44276-3 0  9991
2 69250  53.1593 259.9848 0001216  66.4906 293.6245 15.82046555  2459
STARLINK-37489          
1 69251U 26117P   26164.80982599  .00233032  00000+0  10883-2 0  9993
2 69251  53.1593 260.2889 0000673  92.3294 267.7806 15.82113191  2449
STARLINK-37434          
1 69252U 26117Q   26164.87003563  .00117405  00000+0  55901-3 0  9992
2 69252  53.1588 259.9520 0002060  44.5958 315.5230 15.82050306  2451
STARLINK-37368          
1 69253U 26117R   26164.73693782  .00211326  00000+0  99072-3 0  9990
2 69253  53.1587 260.5400 0000784  73.5344 286.5765 15.82092669  2434
STARLINK-37517          
1 69254U 26117S   26164.73562145  .00215820  00000+0  10112-2 0  9999
2 69254  53.1585 260.5308 0000519  91.6267 268.4816 15.82091439  2431
STARLINK-37378          
1 69255U 26117T   26164.73529155  .00238993  00000+0  11160-2 0  9994
2 69255  53.1588 260.5290 0001060  90.2281 269.8864 15.82101028  2432
STARLINK-37396          
1 69256U 26117U   26164.79600738  .00246125  00000+0  11468-2 0  9995
2 69256  53.1583 260.1936 0000854 120.9543 239.1564 15.82127789  2443
STARLINK-37508          
1 69257U 26117V   26164.91668981 -.00055571  00000+0 -27936-3 0  9997
2 69257  53.1587 259.5864 0001230  57.5346 271.1356 15.80907736  3649
STARLINK-37276          
1 69258U 26117W   26164.91668981 -.00008939  00000+0 -41795-4 0  9994
2 69258  53.1584 259.2676 0001135  71.8083  50.3635 15.80872543  3640
STARLINK-37518          
1 69259U 26117X   26164.91668981 -.00069045  00000+0 -34870-3 0  9995
2 69259  53.1582 259.2827 0001230 108.0888   7.0743 15.80895024  3658
STARLINK-37478          
1 69260U 26117Y   26164.91668981 -.00005996  00000+0 -26857-4 0  9999
2 69260  53.1586 259.2852 0001187  90.4207  23.4649 15.80872026  3656
STARLINK-37506          
1 69261U 26117Z   26164.91668981 -.00047613  00000+0 -23877-3 0  9990
2 69261  53.1580 259.2791 0001199  71.0115  45.6523 15.80894889  3657
STARLINK-37503          
1 69262U 26117AA  26164.91668981 -.00080746  00000+0 -40888-3 0  9996
2 69262  53.1583 259.2755 0001374 119.9305 358.1995 15.80898308  3654
STARLINK-37502          
1 69263U 26117AB  26164.91668981 -.00019874  00000+0 -97407-4 0  9991
2 69263  53.1584 259.2689 0000904  79.1275  41.9395 15.80868168  3655
STARLINK-37486          
1 69264U 26117AC  26164.91668981 -.00032865  00000+0 -16354-3 0  9998
2 69264  53.1580 259.2547 0000966  84.1025  43.9081 15.80880316  3655
STARLINK-37435          
1 69265U 26117AD  26164.91668981 -.00075860  00000+0 -38374-3 0  9997
2 69265  53.1581 259.2714 0001213 113.7008   5.8257 15.80897210  3652
STARLINK-37464          
1 69266U 26117AE  26164.91668981 -.00047607  00000+0 -22678-3 0  9996
2 69266  53.1577 259.2456 0001185  95.3522  36.4103 15.81996492  3658
KUIPER-00282            
1 69267U 26118A   26164.90070037  .00020623  00000+0  61094-3 0  9998
2 69267  51.8587  69.3941 0012068 168.8789 191.2465 15.34765897  3479
KUIPER-00383            
1 69268U 26118B   26164.89771922  .00008755  00000+0  26736-3 0  9994
2 69268  51.8587  69.3767 0010728 168.0899 192.0342 15.34647128  3470
KUIPER-00527            
1 69269U 26118C   26164.89399638  .00018060  00000+0  53239-3 0  9993
2 69269  51.8613  69.3553 0010253 164.5663 195.5638 15.35032636  3476
KUIPER-00562            
1 69270U 26118D   26164.93361992  .00033815  00000+0  88072-3 0  9990
2 69270  51.8727  68.8714 0001948 106.5498 253.5703 15.38560804  3485
KUIPER-00570            
1 69271U 26118E   26164.89598110 -.00043334  00000+0 -12415-2 0  9996
2 69271  51.8574  69.3642 0011668 171.1227 188.9967 15.35214296  3470
KUIPER-00572            
1 69272U 26118F   26164.94947572  .00026689  00000+0  73488-3 0  9993
2 69272  51.8674  68.9819 0007429 159.0506 201.0786 15.36942765  3485
KUIPER-00581            
1 69273U 26118G   26164.95263330  .00015380  00000+0  43379-3 0  9990
2 69273  51.8654  69.0018 0009001 162.9137 197.2154 15.36559149  3573
KUIPER-00584            
1 69274U 26118H   26164.89807243  .00023296  00000+0  67841-3 0  9996
2 69274  51.8604  69.3808 0011315 176.6304 183.4760 15.35236700  3471
KUIPER-00587            
1 69275U 26118J   26164.95208393  .00026429  00000+0  73529-3 0  9996
2 69275  51.8628  68.9973 0008253 165.5855 194.5369 15.36620099  3489
KUIPER-00590            
1 69276U 26118K   26164.94085628  .00029127  00000+0  77812-3 0  9997
2 69276  51.8691  68.9257 0004397 148.0213 212.1041 15.37848802  3483
KUIPER-00592            
1 69277U 26118L   26164.87376834  .00029074  00000+0  77099-3 0  9990
2 69277  51.8711  69.2276 0003523 121.7399 238.3932 15.38080319  3475
KUIPER-00593            
1 69278U 26118M   26164.93933882  .00031862  00000+0  84618-3 0  9993
2 69278  51.8716  68.9132 0004127 143.6388 216.4880 15.37985537  3542
KUIPER-00594            
1 69279U 26118N   26164.93252688  .00023724  00000+0  62127-3 0  9991
2 69279  51.8729  68.8692 0001112  66.0171 294.0932 15.38586079  3488
