OBJECT_NAME,OBJECT_ID,EPOCH,MEAN_MOTION,ECCENTRICITY,INCLINATION,RA_OF_ASC_NODE,ARG_OF_PERICENTER,MEAN_ANOMALY,EPHEMERIS_TYPE,CLASSIFICATION_TYPE,NORAD_CAT_ID,ELEMENT_SET_NO,REV_AT_EPOCH,BSTAR,MEAN_MOTION_DOT,MEAN_MOTION_DDOT
STARLINK-37499,2026-117N,2026-06-13T20:59:39.638976,15.82046555,.00012163,53.1593,259.9848,66.4906,293.6245,0,U,69250,999,245,.44276286E-3,.92554E-3,0
STARLINK-37489,2026-117P,2026-06-13T19:26:08.965536,15.82113191,.00006734,53.1593,260.2889,92.3294,267.7806,0,U,69251,999,244,.10883362E-2,.233032E-2,0
STARLINK-37434,2026-117Q,2026-06-13T20:52:51.078432,15.82050306,.00020605,53.1588,259.9520,44.5958,315.5230,0,U,69252,999,245,.55900526E-3,.117405E-2,0
STARLINK-37368,2026-117R,2026-06-13T17:41:11.427648,15.82092669,.00007845,53.1587,260.5400,73.5344,286.5765,0,U,69253,999,243,.99071822E-3,.211326E-2,0
STARLINK-37517,2026-117S,2026-06-13T17:39:17.693280,15.82091439,.00005199,53.1585,260.5308,91.6267,268.4816,0,U,69254,999,243,.10112307E-2,.21582E-2,0
STARLINK-37378,2026-117T,2026-06-13T17:38:49.189920,15.82101028,.00010608,53.1588,260.5290,90.2281,269.8864,0,U,69255,999,243,.11159636E-2,.238993E-2,0
STARLINK-37396,2026-117U,2026-06-13T19:06:15.037632,15.82127789,.00008542,53.1583,260.1936,120.9543,239.1564,0,U,69256,999,244,.11467759E-2,.246125E-2,0
STARLINK-37508,2026-117V,2026-06-13T22:00:01.999584,15.80907736,.00012303,53.1587,259.5864,57.5346,271.1356,0,U,69257,999,364,-.2793609E-3,-.55571E-3,0
STARLINK-37276,2026-117W,2026-06-13T22:00:01.999584,15.80872543,.00011359,53.1584,259.2676,71.8083,50.3635,0,U,69258,999,364,-.41795386E-4,-.8939E-4,0
STARLINK-37518,2026-117X,2026-06-13T22:00:01.999584,15.80895024,.00012302,53.1582,259.2827,108.0888,7.0743,0,U,69259,999,365,-.34870206E-3,-.69045E-3,0
STARLINK-37478,2026-117Y,2026-06-13T22:00:01.999584,15.80872026,.00011877,53.1586,259.2852,90.4207,23.4649,0,U,69260,999,365,-.2685661E-4,-.5996E-4,0
STARLINK-37506,2026-117Z,2026-06-13T22:00:01.999584,15.80894889,.00011998,53.1580,259.2791,71.0115,45.6523,0,U,69261,999,365,-.23876859E-3,-.47613E-3,0
STARLINK-37503,2026-117AA,2026-06-13T22:00:01.999584,15.80898308,.00013742,53.1583,259.2755,119.9305,358.1995,0,U,69262,999,365,-.40888089E-3,-.80746E-3,0
STARLINK-37502,2026-117AB,2026-06-13T22:00:01.999584,15.80868168,.00009045,53.1584,259.2689,79.1275,41.9395,0,U,69263,999,365,-.97407282E-4,-.19874E-3,0
STARLINK-37486,2026-117AC,2026-06-13T22:00:01.999584,15.80880316,.00009663,53.1580,259.2547,84.1025,43.9081,0,U,69264,999,365,-.16354455E-3,-.32865E-3,0
STARLINK-37435,2026-117AD,2026-06-13T22:00:01.999584,15.80897210,.00012131,53.1581,259.2714,113.7008,5.8257,0,U,69265,999,365,-.3837372E-3,-.7586E-3,0
STARLINK-37464,2026-117AE,2026-06-13T22:00:01.999584,15.81996492,.00011857,53.1577,259.2456,95.3522,36.4103,0,U,69266,999,365,-.22677841E-3,-.47607E-3,0
KUIPER-00282,2026-118A,2026-06-13T21:37:00.511968,15.34765897,.00120685,51.8587,69.3941,168.8789,191.2465,0,U,69267,999,347,.61093671E-3,.20623E-3,0
KUIPER-00383,2026-118B,2026-06-13T21:32:42.940608,15.34647128,.00107285,51.8587,69.3767,168.0899,192.0342,0,U,69268,999,347,.26735922E-3,.8755E-4,0
KUIPER-00527,2026-118C,2026-06-13T21:27:21.287232,15.35032636,.00102533,51.8613,69.3553,164.5663,195.5638,0,U,69269,999,347,.53239432E-3,.1806E-3,0
KUIPER-00562,2026-118D,2026-06-13T22:24:24.761088,15.38560804,.00019484,51.8727,68.8714,106.5498,253.5703,0,U,69270,999,348,.88071937E-3,.33815E-3,0
KUIPER-00570,2026-118E,2026-06-13T21:30:12.767040,15.35214296,.00116689,51.8574,69.3642,171.1227,188.9967,0,U,69271,999,347,-.124147E-2,-.43334E-3,0
KUIPER-00572,2026-118F,2026-06-13T22:47:14.702208,15.36942765,.00074296,51.8674,68.9819,159.0506,201.0786,0,U,69272,999,348,.73487705E-3,.26689E-3,0
KUIPER-00581,2026-118G,2026-06-13T22:51:47.517120,15.36559149,.00090011,51.8654,69.0018,162.9137,197.2154,0,U,69273,999,357,.43378747E-3,.1538E-3,0
KUIPER-00584,2026-118H,2026-06-13T21:33:13.457952,15.35236700,.00113159,51.8604,69.3808,176.6304,183.4760,0,U,69274,999,347,.67840588E-3,.23296E-3,0
KUIPER-00587,2026-118J,2026-06-13T22:51:00.051552,15.36620099,.00082534,51.8628,68.9973,165.5855,194.5369,0,U,69275,999,348,.73529023E-3,.26429E-3,0
KUIPER-00590,2026-118K,2026-06-13T22:34:49.982592,15.37848802,.00043977,51.8691,68.9257,148.0213,212.1041,0,U,69276,999,348,.77812395E-3,.29127E-3,0
KUIPER-00592,2026-118L,2026-06-13T20:58:13.584576,15.38080319,.00035232,51.8711,69.2276,121.7399,238.3932,0,U,69277,999,347,.77098825E-3,.29074E-3,0
KUIPER-00593,2026-118M,2026-06-13T22:32:38.874048,15.37985537,.0004127,51.8716,68.9132,143.6388,216.4880,0,U,69278,999,354,.84617505E-3,.31862E-3,0
KUIPER-00594,2026-118N,2026-06-13T22:22:50.322432,15.38586079,.00011123,51.8729,68.8692,66.0171,294.0932,0,U,69279,999,348,.62126932E-3,.23724E-3,0
